IRIDIUM 126             
1 42809U 17039G   23361.69285224  .00000497  00000+0  17026-3 0  9994
2 42809  86.3969  10.8006 0002514  94.4670 265.6813 14.34221604340592
IRIDIUM 124             
1 42810U 17039H   23361.91946769  .00000695  00000+0  20045-3 0  9994
2 42810  86.4492 307.4601 0002143  81.0946 279.0497 14.43292108344978
IRIDIUM 128             
1 42811U 17039J   23361.61382361  .00000527  00000+0  18100-3 0  9997
2 42811  86.3961  42.3507 0002274  94.3101 265.8355 14.34220406340619
IRIDIUM 121             
1 42812U 17039K   23361.57234456  .00000481  00000+0  16484-3 0  9996
2 42812  86.3969  10.8731 0002244  94.6169 265.5283 14.34220392340454
IRIDIUM 133             
1 42955U 17061A   23361.92461318  .00000046  00000+0  93166-5 0  9998
2 42955  86.3963  42.3167 0002277  95.3267 264.8188 14.34216366325457
IRIDIUM 100             
1 42956U 17061B   23361.63919525  .00000405  00000+0  13747-3 0  9999
2 42956  86.3961  42.3754 0002324  95.9683 264.1778 14.34218777325411
IRIDIUM 122             
1 42957U 17061C   23361.60748468  .00000323  00000+0  10827-3 0  9998
2 42957  86.3963  42.3869 0002341  92.9870 267.1594 14.34216162325410
IRIDIUM 129             
1 42958U 17061D   23361.63285567  .00000462  00000+0  15795-3 0  9991
2 42958  86.3963  42.4336 0002344  92.5071 267.6393 14.34218220325434
